{
  "type": "FeatureCollection",
  "features": [
    {
      "type": "Feature",
      "properties": {
        "norad_id": 35959,
        "name": "COSMOS 2251 DEB",
        "group": "cosmos-2251-debris",
        "lat": 24.72561472017649,
        "lon": -52.64636522921331,
        "alt_km": 761.4047175190008,
        "timestamp": "2025-12-19T10:50:01.598555+00:00",
        "meta_object_name": "COSMOS 2251 DEB",
        "meta_object_id": "1993-036AUZ",
        "meta_epoch": "2025-12-18T02:54:20.383200",
        "meta_mean_motion": 14.34139826,
        "meta_eccentricity": 0.00217869,
        "meta_inclination": 74.0326,
        "meta_ra_of_asc_node": 302.2118,
        "meta_arg_of_pericenter": 21.1868,
        "meta_mean_anomaly": 339.0181,
        "meta_ephemeris_type": 0,
        "meta_classification_type": "U",
        "meta_norad_cat_id": 35959,
        "meta_element_set_no": 999,
        "meta_rev_at_epoch": 85005,
        "meta_bstar": 0.00010326625,
        "meta_mean_motion_dot": 2.64e-06,
        "meta_mean_motion_ddot": 0,
        "tle_line1": "1 35959U 93036AUZ 25352.12106925  .00000264  00000+0  10327-3 0  9992",
        "tle_line2": "2 35959  74.0326 302.2118 0021786  21.1868 339.0181 14.34139826850056"
      },
      "geometry": {
        "type": "Point",
        "coordinates": [
          -52.64636522921331,
          24.72561472017649
        ]
      }
    },
    {
      "type": "Feature",
      "properties": {
        "norad_id": 35961,
        "name": "COSMOS 2251 DEB",
        "group": "cosmos-2251-debris",
        "lat": -17.040978434669622,
        "lon": -172.69545394853603,
        "alt_km": 988.1157877433634,
        "timestamp": "2025-12-19T10:50:01.598565+00:00",
        "meta_object_name": "COSMOS 2251 DEB",
        "meta_object_id": "1993-036AVB",
        "meta_epoch": "2025-12-18T21:15:12.372768",
        "meta_mean_motion": 14.05418101,
        "meta_eccentricity": 0.01915239,
        "meta_inclination": 73.9239,
        "meta_ra_of_asc_node": 193.3704,
        "meta_arg_of_pericenter": 125.5075,
        "meta_mean_anomaly": 236.4097,
        "meta_ephemeris_type": 0,
        "meta_classification_type": "U",
        "meta_norad_cat_id": 35961,
        "meta_element_set_no": 999,
        "meta_rev_at_epoch": 62768,
        "meta_bstar": 0.0011788636,
        "meta_mean_motion_dot": 2.232e-05,
        "meta_mean_motion_ddot": 0,
        "tle_line1": "1 35961U 93036AVB 25352.88555987  .00002232  00000+0  11789-2 0  9993",
        "tle_line2": "2 35961  73.9239 193.3704 0191523 125.5075 236.4097 14.05418101627687"
      },
      "geometry": {
        "type": "Point",
        "coordinates": [
          -172.69545394853603,
          -17.040978434669622
        ]
      }
    },
    {
      "type": "Feature",
      "properties": {
        "norad_id": 35979,
        "name": "COSMOS 2251 DEB",
        "group": "cosmos-2251-debris",
        "lat": 68.01508781669156,
        "lon": -0.005694368076966306,
        "alt_km": 652.6491051031608,
        "timestamp": "2025-12-19T10:50:01.598575+00:00",
        "meta_object_name": "COSMOS 2251 DEB",
        "meta_object_id": "1993-036AVV",
        "meta_epoch": "2025-12-17T22:37:43.321728",
        "meta_mean_motion": 14.74704209,
        "meta_eccentricity": 0.00591052,
        "meta_inclination": 74.0093,
        "meta_ra_of_asc_node": 228.2039,
        "meta_arg_of_pericenter": 359.1807,
        "meta_mean_anomaly": 19.9586,
        "meta_ephemeris_type": 0,
        "meta_classification_type": "U",
        "meta_norad_cat_id": 35979,
        "meta_element_set_no": 999,
        "meta_rev_at_epoch": 88710,
        "meta_bstar": 0.00063181032,
        "meta_mean_motion_dot": 4.31e-05,
        "meta_mean_motion_ddot": 0,
        "tle_line1": "1 35979U 93036AVV 25351.94286252  .00004310  00000+0  63181-3 0  9997",
        "tle_line2": "2 35979  74.0093 228.2039 0059105 359.1807  19.9586 14.74704209887107"
      },
      "geometry": {
        "type": "Point",
        "coordinates": [
          -0.005694368076966306,
          68.01508781669156
        ]
      }
    },
    {
      "type": "Feature",
      "properties": {
        "norad_id": 35980,
        "name": "COSMOS 2251 DEB",
        "group": "cosmos-2251-debris",
        "lat": -25.536258302406363,
        "lon": 101.86775408545742,
        "alt_km": 700.486325220345,
        "timestamp": "2025-12-19T10:50:01.598585+00:00",
        "meta_object_name": "COSMOS 2251 DEB",
        "meta_object_id": "1993-036AVW",
        "meta_epoch": "2025-12-15T01:39:40.666752",
        "meta_mean_motion": 14.5933919,
        "meta_eccentricity": 0.00539648,
        "meta_inclination": 73.9111,
        "meta_ra_of_asc_node": 118.2073,
        "meta_arg_of_pericenter": 252.458,
        "meta_mean_anomaly": 107.0684,
        "meta_ephemeris_type": 0,
        "meta_classification_type": "U",
        "meta_norad_cat_id": 35980,
        "meta_element_set_no": 999,
        "meta_rev_at_epoch": 61520,
        "meta_bstar": 0.00098659578,
        "meta_mean_motion_dot": 4.733e-05,
        "meta_mean_motion_ddot": 0,
        "tle_line1": "1 35980U 93036AVW 25349.06922068  .00004733  00000+0  98660-3 0  9990",
        "tle_line2": "2 35980  73.9111 118.2073 0053964 252.4580 107.0684 14.59339190615208"
      },
      "geometry": {
        "type": "Point",
        "coordinates": [
          101.86775408545742,
          -25.536258302406363
        ]
      }
    },
    {
      "type": "Feature",
      "properties": {
        "norad_id": 35982,
        "name": "COSMOS 2251 DEB",
        "group": "cosmos-2251-debris",
        "lat": -20.654938130222384,
        "lon": -32.10425813460679,
        "alt_km": 666.0457600665777,
        "timestamp": "2025-12-19T10:50:01.598595+00:00",
        "meta_object_name": "COSMOS 2251 DEB",
        "meta_object_id": "1993-036AVY",
        "meta_epoch": "2025-12-18T08:40:08.676192",
        "meta_mean_motion": 14.62782378,
        "meta_eccentricity": 0.00643194,
        "meta_inclination": 74.0579,
        "meta_ra_of_asc_node": 336.1676,
        "meta_arg_of_pericenter": 40.8079,
        "meta_mean_anomaly": 319.7878,
        "meta_ephemeris_type": 0,
        "meta_classification_type": "U",
        "meta_norad_cat_id": 35982,
        "meta_element_set_no": 999,
        "meta_rev_at_epoch": 86248,
        "meta_bstar": 0.00049982191,
        "meta_mean_motion_dot": 2.596e-05,
        "meta_mean_motion_ddot": 0,
        "tle_line1": "1 35982U 93036AVY 25352.36121153  .00002596  00000+0  49982-3 0  9993",
        "tle_line2": "2 35982  74.0579 336.1676 0064319  40.8079 319.7878 14.62782378862483"
      },
      "geometry": {
        "type": "Point",
        "coordinates": [
          -32.10425813460679,
          -20.654938130222384
        ]
      }
    },
    {
      "type": "Feature",
      "properties": {
        "norad_id": 35987,
        "name": "COSMOS 2251 DEB",
        "group": "cosmos-2251-debris",
        "lat": -37.444127034689465,
        "lon": 146.84644606303803,
        "alt_km": 779.4484526354481,
        "timestamp": "2025-12-19T10:50:01.598605+00:00",
        "meta_object_name": "COSMOS 2251 DEB",
        "meta_object_id": "1993-036AWD",
        "meta_epoch": "2025-12-14T05:02:56.141664",
        "meta_mean_motion": 14.43139491,
        "meta_eccentricity": 0.00459797,
        "meta_inclination": 73.9997,
        "meta_ra_of_asc_node": 323.9049,
        "meta_arg_of_pericenter": 89.0828,
        "meta_mean_anomaly": 271.5596,
        "meta_ephemeris_type": 0,
        "meta_classification_type": "U",
        "meta_norad_cat_id": 35987,
        "meta_element_set_no": 999,
        "meta_rev_at_epoch": 61086,
        "meta_bstar": 0.001182332,
        "meta_mean_motion_dot": 3.997e-05,
        "meta_mean_motion_ddot": 0,
        "tle_line1": "1 35987U 93036AWD 25348.21037201  .00003997  00000+0  11823-2 0  9995",
        "tle_line2": "2 35987  73.9997 323.9049 0045979  89.0828 271.5596 14.43139491610862"
      },
      "geometry": {
        "type": "Point",
        "coordinates": [
          146.84644606303803,
          -37.444127034689465
        ]
      }
    },
    {
      "type": "Feature",
      "properties": {
        "norad_id": 35989,
        "name": "COSMOS 2251 DEB",
        "group": "cosmos-2251-debris",
        "lat": 58.07376672255142,
        "lon": 64.14710165438066,
        "alt_km": 771.454247226191,
        "timestamp": "2025-12-19T10:50:01.598615+00:00",
        "meta_object_name": "COSMOS 2251 DEB",
        "meta_object_id": "1993-036AWF",
        "meta_epoch": "2025-12-15T12:43:44.525280",
        "meta_mean_motion": 14.3710632,
        "meta_eccentricity": 0.00221302,
        "meta_inclination": 74.0379,
        "meta_ra_of_asc_node": 278.7,
        "meta_arg_of_pericenter": 359.7916,
        "meta_mean_anomaly": 0.3224,
        "meta_ephemeris_type": 0,
        "meta_classification_type": "U",
        "meta_norad_cat_id": 35989,
        "meta_element_set_no": 999,
        "meta_rev_at_epoch": 87219,
        "meta_bstar": 0.00023403924,
        "meta_mean_motion_dot": 6.71e-06,
        "meta_mean_motion_ddot": 0,
        "tle_line1": "1 35989U 93036AWF 25349.53037645  .00000671  00000+0  23404-3 0  9990",
        "tle_line2": "2 35989  74.0379 278.7000 0022130 359.7916   0.3224 14.37106320872193"
      },
      "geometry": {
        "type": "Point",
        "coordinates": [
          64.14710165438066,
          58.07376672255142
        ]
      }
    }
  ]
}